NORAD_CAT_ID,OBJECT_NAME,OBJECT_TYPE,EPOCH,MEAN_MOTION,ECCENTRICITY,INCLINATION,RA_OF_ASC_NODE,ARG_OF_PERICENTER,MEAN_ANOMALY,BSTAR,MEAN_MOTION_DOT,MEAN_MOTION_DDOT,TLE_LINE0,TLE_LINE1,TLE_LINE2,SEMIMAJOR_AXIS,PERIOD,APOGEE,PERIGEE,DECAYED
52601.0,STARLINK-4027,PAYLOAD,2024-02-23 03:14:10,15.0884325,0.0001535,53.2192,26.043,100.487,259.6295,-2.9552e-06,-3.35e-06,0.0,0 STARLINK-4027,1 52601U 22052D   24054.13484211 -.00000335  00000-0 -29552-5 0  9995,2 52601  53.2192  26.0430 0001535 100.4870 259.6295 15.08843250 99100,6917.87,95.437,540.797,538.674,0.0
52601.0,STARLINK-4027,PAYLOAD,2024-02-23 22:18:48,15.08837605,0.000133,53.2192,22.4775,90.0016,270.1129,4.094e-05,3.64e-06,0.0,0 STARLINK-4027,1 52601U 22052D   24054.92972655  .00000364  00000-0  40940-4 0  9999,2 52601  53.2192  22.4775 0001330  90.0016 270.1129 15.08837605 99225,6917.888,95.438,540.673,538.833,0.0
52601.0,STARLINK-4027,PAYLOAD,2024-02-24 03:04:57,15.08840796,0.0001364,53.2191,21.5831,101.5193,258.5953,7.047e-05,8.34e-06,0.0,0 STARLINK-4027,1 52601U 22052D   24055.12844309  .00000834  00000-0  70470-4 0  9999,2 52601  53.2191  21.5831 0001364 101.5193 258.5953 15.08840796 98823,6917.878,95.438,540.687,538.799,0.0
52601.0,STARLINK-4027,PAYLOAD,2024-02-24 14:12:39,15.0884279,0.0001338,53.2192,19.502,98.7216,261.3927,8.714e-05,1.099e-05,0.0,0 STARLINK-4027,1 52601U 22052D   24055.59212198  .00001099  00000-0  87140-4 0  9991,2 52601  53.2192  19.5020 0001338  98.7216 261.3927 15.08842790 99320,6917.872,95.437,540.662,538.811,0.0
52601.0,STARLINK-4027,PAYLOAD,2024-02-25 04:31:08,15.08836157,0.0001187,53.219,16.8309,97.9617,262.151,6.0048e-05,6.68e-06,0.0,0 STARLINK-4027,1 52601U 22052D   24056.18828876  .00000668  00000-0  60048-4 0  9992,2 52601  53.2190  16.8309 0001187  97.9617 262.1510 15.08836157 98984,6917.892,95.438,540.578,538.936,0.0
52601.0,STARLINK-4027,PAYLOAD,2024-02-25 14:03:26,15.08840459,0.0001429,53.2188,15.0458,95.7814,264.3341,0.00010489,1.382e-05,0.0,0 STARLINK-4027,1 52601U 22052D   24056.58572557  .00001382  00000-0  10489-3 0  9995,2 52601  53.2188  15.0458 0001429  95.7814 264.3341 15.08840459 99472,6917.879,95.438,540.733,538.755,0.0
52601.0,STARLINK-4027,PAYLOAD,2024-02-26 05:57:17,15.08850234,0.0001356,53.2192,12.0692,98.3362,261.7783,0.00011204,1.496e-05,0.0,0 STARLINK-4027,1 52601U 22052D   24057.24811860  .00001496  00000-0  11204-3 0  9994,2 52601  53.2192  12.0692 0001356  98.3362 261.7783 15.08850234 99147,6917.849,95.437,540.652,538.776,0.0
52601.0,STARLINK-4027,PAYLOAD,2024-02-27 02:37:19,15.08841695,0.0001746,53.2197,8.2057,118.8529,241.2639,-3.06e-05,-7.75e-06,0.0,0 STARLINK-4027,1 52601U 22052D   24058.10925040 -.00000775  00000-0 -30600-4 0  9999,2 52601  53.2197   8.2057 0001746 118.8529 241.2639 15.08841695 99278,6917.875,95.437,540.948,538.532,0.0
52601.0,STARLINK-4027,PAYLOAD,2024-02-27 13:45:01,15.08841294,0.0001473,53.2195,6.124,91.12,268.9961,-2.2533e-05,-6.47e-06,0.0,0 STARLINK-4027,1 52601U 22052D   24058.57293151 -.00000647  00000-0 -22533-4 0  9995,2 52601  53.2195   6.1240 0001473  91.1200 268.9961 15.08841294 99777,6917.876,95.437,540.76,538.722,0.0
52601.0,STARLINK-4027,PAYLOAD,2024-02-28 04:03:29,15.08844156,0.0001259,53.2183,3.4463,96.7839,263.3296,5.0129e-05,5.1e-06,0.0,0 STARLINK-4027,1 52601U 22052D   24059.16908843  .00000510  00000-0  50129-4 0  9991,2 52601  53.2183   3.4463 0001259  96.7839 263.3296 15.08844156 99435,6917.868,95.437,540.604,538.862,0.0
52601.0,STARLINK-4027,PAYLOAD,2024-02-28 13:35:48,15.08841666,0.0001384,53.2181,1.6594,103.1396,256.975,-5.0891e-05,-1.098e-05,0.0,0 STARLINK-4027,1 52601U 22052D   24059.56653041 -.00001098  00000-0 -50891-4 0  9992,2 52601  53.2181   1.6594 0001384 103.1396 256.9750 15.08841666 99928,6917.875,95.437,540.698,538.783,0.0
52601.0,STARLINK-4027,PAYLOAD,2024-02-29 05:29:39,15.0884429,0.0001428,53.2181,358.6852,110.5419,249.5726,4.8525e-05,4.84e-06,0.0,0 STARLINK-4027,1 52601U 22052D   24060.22892884  .00000484  00000-0  48525-4 0  9994,2 52601  53.2181 358.6852 0001428 110.5419 249.5726 15.08844290 99597,6917.867,95.437,540.72,538.744,0.0
52601.0,STARLINK-4027,PAYLOAD,2024-02-29 13:26:35,15.08843057,0.0001447,53.2189,357.1997,103.8263,256.289,3.9285e-05,3.37e-06,0.0,0 STARLINK-4027,1 52601U 22052D   24060.56012958  .00000337  00000-0  39285-4 0  9997,2 52601  53.2189 357.1997 0001447 103.8263 256.2890 15.08843057100075,6917.871,95.437,540.737,538.735,0.0
52601.0,STARLINK-4027,PAYLOAD,2024-02-29 22:58:54,15.08838201,0.0001574,53.2195,355.4162,98.7621,261.3549,4.3692e-05,4.07e-06,0.0,0 STARLINK-4027,1 52601U 22052D   24060.95757405  .00000407  00000-0  43692-4 0  9998,2 52601  53.2195 355.4162 0001574  98.7621 261.3549 15.08838201100138,6917.886,95.438,540.84,538.662,0.0
52601.0,STARLINK-4027,PAYLOAD,2024-03-01 05:20:26,15.08840898,0.0001675,53.2201,354.2257,106.6456,253.472,7.1263e-05,8.46e-06,0.0,0 STARLINK-4027,1 52601U 22052D   24061.22253153  .00000846  00000-0  71263-4 0  9992,2 52601  53.2201 354.2257 0001675 106.6456 253.4720 15.08840898100177,6917.878,95.437,540.901,538.584,0.0
52601.0,STARLINK-4027,PAYLOAD,2024-03-02 00:25:04,15.08838515,0.0001594,53.2196,350.6575,109.6647,250.4517,0.00018478,2.654e-05,0.0,0 STARLINK-4027,1 52601U 22052D   24062.01740851  .00002654  00000-0  18478-3 0  9993,2 52601  53.2196 350.6575 0001594 109.6647 250.4517 15.08838515100295,6917.885,95.438,540.853,538.647,0.0
52601.0,STARLINK-4027,PAYLOAD,2024-03-02 22:40:28,15.08840969,0.0001645,53.2201,346.4962,110.6188,249.4981,2.9821e-05,1.87e-06,0.0,0 STARLINK-4027,1 52601U 22052D   24062.94476959  .00000187  00000-0  29821-4 0  9994,2 52601  53.2201 346.4962 0001645 110.6188 249.4981 15.08840969100439,6917.877,95.437,540.88,538.604,0.0
52601.0,STARLINK-4027,PAYLOAD,2024-03-03 05:02:00,15.08842148,0.0001253,53.2192,345.308,72.4016,287.7113,9.5252e-05,1.228e-05,0.0,0 STARLINK-4027,1 52601U 22052D   24063.20972810  .00001228  00000-0  95252-4 0  9999,2 52601  53.2192 345.3080 0001253  72.4016 287.7113 15.08842148100047,6917.874,95.437,540.606,538.872,0.0
52601.0,STARLINK-4027,PAYLOAD,2024-03-04 00:06:39,15.08832968,0.0001397,53.22,341.742,68.4992,291.6149,-1.6967e-05,-5.58e-06,0.0,0 STARLINK-4027,1 52601U 22052D   24064.00461941 -.00000558  00000-0 -16967-4 0  9999,2 52601  53.2200 341.7420 0001397  68.4992 291.6149 15.08832968100167,6917.902,95.438,540.733,538.8,0.0
52601.0,STARLINK-4027,PAYLOAD,2024-03-04 11:14:19,15.0884851,0.0001226,53.2183,339.6583,77.3079,282.805,0.00013022,1.786e-05,0.0,0 STARLINK-4027,1 52601U 22052D   24064.46828411  .00001786  00000-0  13022-3 0  9998,2 52601  53.2183 339.6583 0001226  77.3079 282.8050 15.08848510100230,6917.854,95.437,540.568,538.871,0.0
52601.0,STARLINK-4027,PAYLOAD,2024-03-04 22:22:02,15.08835451,0.0001006,53.2187,337.5768,80.3564,279.7542,-3.0698e-05,-7.76e-06,0.0,0 STARLINK-4027,1 52601U 22052D   24064.93197495 -.00000776  00000-0 -30698-4 0  9990,2 52601  53.2187 337.5768 0001006  80.3564 279.7542 15.08835451100731,6917.894,95.438,540.455,539.063,0.0
52601.0,STARLINK-4027,PAYLOAD,2024-03-05 03:08:11,15.08848741,0.0001346,53.2183,336.6846,81.6427,278.4718,8.9263e-05,1.133e-05,0.0,0 STARLINK-4027,1 52601U 22052D   24065.13068377  .00001133  00000-0  89263-4 0  9997,2 52601  53.2183 336.6846 0001346  81.6427 278.4718 15.08848741100763,6917.854,95.437,540.65,538.788,0.0
52601.0,STARLINK-4027,PAYLOAD,2024-03-05 17:26:40,15.08832085,0.0001529,53.2177,334.0083,79.2001,280.9163,7.9365e-05,9.75e-06,0.0,0 STARLINK-4027,1 52601U 22052D   24065.72685746  .00000975  00000-0  79365-4 0  9992,2 52601  53.2177 334.0083 0001529  79.2001 280.9163 15.08832085100424,6917.905,95.438,540.827,538.712,0.0
52601.0,STARLINK-4027,PAYLOAD,2024-03-06 01:23:36,15.08837281,0.000146,53.218,332.5234,79.9259,280.1898,-3.2667e-06,-3.4e-06,0.0,0 STARLINK-4027,1 52601U 22052D   24066.05805833 -.00000340  00000-0 -32667-5 0  9993,2 52601  53.2180 332.5234 0001460  79.9259 280.1898 15.08837281100908,6917.889,95.438,540.764,538.744,0.0
52601.0,STARLINK-4027,PAYLOAD,2024-03-07 02:49:45,15.08851294,0.0001371,53.2178,327.7618,92.7694,267.3455,5.9712e-05,6.63e-06,0.0,0 STARLINK-4027,1 52601U 22052D   24067.11788635  .00000663  00000-0  59712-4 0  9996,2 52601  53.2178 327.7618 0001371  92.7694 267.3455 15.08851294100630,6917.846,95.437,540.659,538.762,0.0
52601.0,STARLINK-4027,PAYLOAD,2024-03-07 10:46:41,15.08838388,0.000149,53.2193,326.2761,90.103,270.0133,2.3753e-06,-2.5e-06,0.0,0 STARLINK-4027,1 52601U 22052D   24067.44909644 -.00000250  00000-0  23753-5 0  9997,2 52601  53.2193 326.2761 0001490  90.1030 270.0133 15.08838388101115,6917.885,95.438,540.781,538.72,0.0
52601.0,STARLINK-4027,PAYLOAD,2024-03-07 23:29:47,15.08836919,0.0001474,53.2187,323.8973,94.3456,265.7704,2.4778e-05,1.06e-06,0.0,0 STARLINK-4027,1 52601U 22052D   24067.97901908  .00000106  00000-0  24778-4 0  9996,2 52601  53.2187 323.8973 0001474  94.3456 265.7704 15.08836919100769,6917.89,95.438,540.775,538.735,0.0
52601.0,STARLINK-4027,PAYLOAD,2024-03-09 02:31:20,15.0884771,0.0001546,53.2184,318.8436,93.7893,266.3276,2.8893e-05,1.72e-06,0.0,0 STARLINK-4027,1 52601U 22052D   24069.10509298  .00000172  00000-0  28893-4 0  9994,2 52601  53.2184 318.8436 0001546  93.7893 266.3276 15.08847710100933,6917.857,95.437,540.791,538.652,0.0
52601.0,STARLINK-4027,PAYLOAD,2024-03-09 23:11:21,15.08823666,0.0001247,53.2171,314.9788,97.2412,262.8722,0.00030067,4.498e-05,0.0,0 STARLINK-4027,1 52601U 22052D   24069.96622157  .00004498  00000-0  30067-3 0  9998,2 52601  53.2171 314.9788 0001247  97.2412 262.8722 15.08823666101066,6917.93,95.439,540.658,538.933,0.0
52601.0,STARLINK-4027,PAYLOAD,2024-03-10 08:43:40,15.08837886,0.0001118,53.2169,313.1931,82.1947,277.9172,4.485e-05,4.26e-06,0.0,0 STARLINK-4027,1 52601U 22052D   24070.36365978  .00000426  00000-0  44850-4 0  9992,2 52601  53.2169 313.1931 0001118  82.1947 277.9172 15.08837886101129,6917.887,95.438,540.525,538.978,0.0
